     2.11           N: GPS NAV DATA                         RINEX VERSION / TYPE
teqc  2019Feb25                         20221121 12:26:43UTCPGM / RUN BY / DATE
OSX ker:10.11.6|Core i5|gcc 4.3 -m64|OSX ker:10.10+|=+      COMMENT
    5.5879D-09  1.4901D-08 -5.9605D-08 -1.1921D-07          ION ALPHA
    7.7824D+04  3.2768D+04 -6.5536D+04 -2.6214D+05          ION BETA
   -4.656612873077D-09-1.065814103640D-14   147456     1547 DELTA-UTC: A0,A1,T,W
                                                            END OF HEADER
11 09  8 30  0  0  0.0-1.730676740408D-05-1.705302565824D-12 0.000000000000D+00
    5.500000000000D+01 1.246875000000D+01 6.642062382845D-09 1.731602824620D+00
    6.817281246185D-07 9.736350504681D-03 6.370246410370D-06 5.153692020416D+03
    0.000000000000D+00-2.868473529816D-07-2.367842204441D+00 9.126961231232D-08
    8.891138486920D-01 2.203125000000D+02 7.187608843730D-01-8.989660169715D-09
   -2.535819912792D-11 1.000000000000D+00 1.547000000000D+03 0.000000000000D+00
    2.000000000000D+00 0.000000000000D+00-1.164153218269D-08 5.500000000000D+01
   -7.182000000000D+03 4.000000000000D+00
28 09  8 30  0  0  0.0-2.621579915285D-05 0.000000000000D+00 0.000000000000D+00
    1.070000000000D+02-8.671875000000D+01 4.274106605125D-09-1.099779287890D+00
   -4.135072231293D-06 1.505010353867D-02 8.478760719299D-06 5.153654907227D+03
    0.000000000000D+00 1.043081283569D-07 2.071559338361D+00 3.855675458908D-07
    9.674573484476D-01 2.176875000000D+02-2.019266477274D+00-7.940687904382D-09
    1.875078104529D-10 1.000000000000D+00 1.547000000000D+03 0.000000000000D+00
    2.800000000000D+00 0.000000000000D+00-1.071020960808D-08 1.070000000000D+02
   -7.182000000000D+03 4.000000000000D+00
27 09  8 30  0  0  0.0 7.839873433113D-05 3.183231456205D-12 0.000000000000D+00
    7.500000000000D+01-2.140625000000D+01 4.039453973758D-09-2.028144659383D+00
   -7.338821887970D-07 2.132776065264D-02 2.095475792885D-06 5.153749031067D+03
    0.000000000000D+00 3.948807716370D-07 9.357436324726D-01 2.626329660416D-07
    9.753729289976D-01 3.394687500000D+02-1.553491713143D+00-7.833540584123D-09
    1.039329006511D-10 1.000000000000D+00 1.547000000000D+03 0.000000000000D+00
    2.800000000000D+00 0.000000000000D+00-4.190951585770D-09 7.500000000000D+01
   -7.182000000000D+03 4.000000000000D+00
19 09  8 30  0  0  0.0 1.305853947997D-05-1.591615728103D-12 0.000000000000D+00
    9.000000000000D+01-1.843750000000D+00 4.791271004240D-09-2.288099239215D+00
   -6.332993507385D-08 5.814049043693D-03 8.650124073029D-06 5.153644124985D+03
    0.000000000000D+00-1.639127731323D-07-3.121564137676D+00-3.539025783539D-08
    9.579277815829D-01 2.158750000000D+02-2.750004640617D-01-7.932473276495D-09
    3.882304570711D-10 1.000000000000D+00 1.547000000000D+03 0.000000000000D+00
    2.000000000000D+00 0.000000000000D+00-1.443549990654D-08 9.000000000000D+01
   -7.182000000000D+03 4.000000000000D+00
22 09  8 30  0  0  0.0 1.922054216266D-04-7.958078640513D-13 0.000000000000D+00
    8.400000000000D+01 3.734375000000D+01 4.912704633867D-09-1.341957896013D+00
    1.791864633560D-06 5.317360628396D-03 8.137896656990D-06 5.153661834717D+03
    0.000000000000D+00 7.450580596924D-08-1.068105189200D+00 1.564621925354D-07
    9.384821902473D-01 2.125000000000D+02-1.892506726456D+00-8.162125699583D-09
   -4.821629411647D-10 1.000000000000D+00 1.547000000000D+03 0.000000000000D+00
    4.000000000000D+00 0.000000000000D+00-1.769512891769D-08 8.400000000000D+01
   -7.182000000000D+03 4.000000000000D+00
17 09  8 30  0  0  0.0 8.094962686300D-05 2.728484105319D-12 0.000000000000D+00
    9.100000000000D+01-8.218750000000D+00 4.702695886160D-09-1.646601096071D+00
   -3.911554813385D-07 4.631587420590D-03 8.506700396538D-06 5.153724906921D+03
    0.000000000000D+00 8.381903171539D-08 3.105864554354D+00-3.725290298462D-09
    9.602428699241D-01 2.138750000000D+02-2.641062582469D+00-7.897114660810D-09
    4.532331646948D-10 1.000000000000D+00 1.547000000000D+03 0.000000000000D+00
    2.800000000000D+00 0.000000000000D+00-1.024454832077D-08 9.100000000000D+01
   -7.182000000000D+03 4.000000000000D+00
26 09  8 30  0  0  0.0 6.387569010258D-05-6.821210263297D-13 0.000000000000D+00
    5.300000000000D+01 6.400000000000D+01 3.692296656119D-09 1.313598376165D+00
    3.229826688766D-06 2.017474139575D-02 6.414949893951D-06 5.154920408249D+03
    0.000000000000D+00-3.539025783539D-07 3.529222572000D-03-2.793967723846D-08
    9.926141002815D-01 2.814687500000D+02 1.035059992483D+00-7.930330330090D-09
   -1.185763677531D-10 1.000000000000D+00 1.547000000000D+03 0.000000000000D+00
    2.000000000000D+00 0.000000000000D+00-6.519258022308D-09 5.300000000000D+01
   -7.182000000000D+03 4.000000000000D+00
 9 09  8 30  0  0  0.0 7.467111572623D-05 2.046363078989D-12 0.000000000000D+00
    2.800000000000D+01-2.378125000000D+01 4.266963450441D-09 9.560337122873D-01
   -1.585111021996D-06 2.073812554590D-02 3.434717655182D-06 5.153627481461D+03
    0.000000000000D+00-2.346932888031D-07 9.600148741415D-01-1.974403858185D-07
    9.773120093566D-01 3.260312500000D+02 1.508840804019D+00-8.425708107420D-09
   -4.321608583773D-11 1.000000000000D+00 1.547000000000D+03 0.000000000000D+00
    2.000000000000D+00 0.000000000000D+00-5.587935447693D-09 2.800000000000D+01
   -7.182000000000D+03 4.000000000000D+00
32 09  8 30  0  0  0.0 2.061473205686D-04-6.821210263297D-12 0.000000000000D+00
    4.300000000000D+01 5.237500000000D+01 4.319108479633D-09 2.620057754528D+00
    2.754852175713D-06 1.325864554383D-02 8.150935173035D-06 5.153737924576D+03
    0.000000000000D+00 2.160668373108D-07-1.015921678313D+00 6.891787052155D-08
    9.625472965185D-01 2.191562500000D+02-1.126537879430D+00-7.675676865608D-09
   -4.857345185067D-10 1.000000000000D+00 1.547000000000D+03 0.000000000000D+00
    2.000000000000D+00 0.000000000000D+00-3.259629011154D-09 4.300000000000D+01
   -7.182000000000D+03 4.000000000000D+00
14 09  8 30  0  0  0.0-5.817646160722D-05 5.343281372916D-12 0.000000000000D+00
    4.100000000000D+01 6.478125000000D+01 3.650866358952D-09-2.145572893186D+00
    3.458932042122D-06 4.830783931538D-03 5.846843123436D-06 5.153642681122D+03
    0.000000000000D+00 2.421438694000D-08-1.399748691437D-02-9.499490261078D-08
    9.882491652759D-01 2.841875000000D+02-2.163900028059D+00-7.636746672581D-09
    4.393040130612D-11 1.000000000000D+00 1.547000000000D+03 0.000000000000D+00
    2.000000000000D+00 0.000000000000D+00-9.313225746155D-09 4.100000000000D+01
   -7.182000000000D+03 4.000000000000D+00
20 09  8 30  0  0  0.0 7.354747503996D-05-9.094947017729D-13 0.000000000000D+00
    7.400000000000D+01 4.140625000000D+01 4.971992817744D-09-1.321088859054D-01
    2.156943082809D-06 3.823156817816D-03 8.203089237213D-06 5.153784759521D+03
    0.000000000000D+00-1.303851604462D-08-1.127484140194D+00-5.587935447693D-09
    9.404804983078D-01 2.090000000000D+02 1.328301207568D+00-8.249986502195D-09
   -4.514473760239D-10 1.000000000000D+00 1.547000000000D+03 0.000000000000D+00
    2.000000000000D+00 0.000000000000D+00-6.519258022308D-09 7.400000000000D+01
   -7.002000000000D+03 4.000000000000D+00
 4 09  8 30  0  0  0.0-2.420442178845D-04-1.716671249596D-11 0.000000000000D+00
    5.700000000000D+01 1.053125000000D+01 5.415225565881D-09 1.391334571812D-01
    6.239861249924D-07 8.707943023182D-03 6.072223186493D-06 5.153784259796D+03
    0.000000000000D+00 4.284083843231D-08-2.144641129940D+00 7.078051567078D-08
    9.399000182656D-01 2.485625000000D+02 5.068463559794D-01-8.451780622016D-09
   -2.567964108870D-10 1.000000000000D+00 1.547000000000D+03 0.000000000000D+00
    2.000000000000D+00 0.000000000000D+00-6.053596735001D-09 5.700000000000D+01
   -2.112000000000D+03 4.000000000000D+00
12 09  8 30  0  0  0.0-2.268129028380D-04 5.798028723802D-12 0.000000000000D+00
    2.900000000000D+01-8.578125000000D+01 4.257677349352D-09 1.892450604530D+00
   -4.665926098824D-06 3.120424225926D-03 7.743015885353D-06 5.153589014053D+03
    0.000000000000D+00 4.097819328308D-08 2.046401660500D+00 5.587935447693D-08
    9.678418457434D-01 2.376250000000D+02-6.034109305101D-01-7.806396596324D-09
    1.189335254873D-10 1.000000000000D+00 1.547000000000D+03 0.000000000000D+00
    2.000000000000D+00 0.000000000000D+00-1.164153218269D-08 2.900000000000D+01
   -1.992000000000D+03 4.000000000000D+00
